STARLINK-3947           
1 52607U 22052K   26068.88262575  .00000512  00000+0  50277-4 0  9998
2 52607  53.2166 283.2667 0001348  92.7035 267.4112 15.08835543210807
CSC-1                   
1 58022U 23155G   26068.74030489  .00008819  00000+0  54557-3 0  9994
2 58022  97.5446 139.7305 0007504 212.9992 147.0770 15.10035960132723
